{
  "norad_id": 53636,
  "name": "STARLINK-4586",
  "history": [
    {
      "epoch": "2026-03-28T20:56:08.422944Z",
      "apogee_km": 540.5821853816678,
      "perigee_km": 538.5857311131167,
      "latitude_deg": -4.219830475309499e-05,
      "longitude_deg": -2.490060431509702,
      "height_km": 540.5896045865874,
      "semi_major_axis_km": 6917.7209582473915,
      "eccentricity": 0.0001443,
      "inclination_deg": 53.2169,
      "raan_deg": 137.8316,
      "arg_perigee_deg": 96.3307,
      "mean_anomaly_deg": 263.7849,
      "mean_motion_rev_day": 15.08892161
    }
  ]
}